ONEWEB-0564             
1 55801U 23029F   25075.86666262  .00000116  00000+0  25313-3 0  9990
2 55801  87.9339   5.4913 0001723  91.5958 268.5373 13.20772907100780
ONEWEB-0638             
1 55802U 23029G   25075.84907238  .00000123  00000+0  29772-3 0  9991
2 55802  87.9078  20.6996 0002184  94.1343 266.0036 13.14504315 99314
ONEWEB-0639             
1 55803U 23029H   25075.93247916  .00000062  00000+0  12307-3 0  9990
2 55803  87.9218  35.8608 0002968  68.6017 291.5432 13.19725901 98596
ONEWEB-0640             
1 55804U 23029J   25075.85858945 -.00000037  00000+0 -13355-3 0  9990
2 55804  87.9076  20.6876 0002577  89.4291 270.7134 13.14501442 99337
ONEWEB-0641             
1 55805U 23029K   25075.92774117  .00000035  00000+0  54775-4 0  9995
2 55805  87.9214  35.8363 0002078  76.6526 283.4838 13.19725272 98601
ONEWEB-0642             
1 55806U 23029L   25075.92300428  .00000083  00000+0  17549-3 0  9996
2 55806  87.9219  35.8709 0002601  63.6680 296.4720 13.19725794 98591
ONEWEB-0643             
1 55807U 23029M   25075.90455974 -.00000459  00000+0 -12734-2 0  9991
2 55807  87.9075  20.6595 0002199  56.9101 303.2240 13.14506029 99310
ONEWEB-0644             
1 55808U 23029N   25075.91826758  .00000239  00000+0  56512-3 0  9992
2 55808  87.9221  35.8736 0002276  69.2359 290.9017 13.19725916 98593
